{
  "type": "FeatureCollection",
  "features": [
    {
      "type": "Feature",
      "properties": {
        "norad_id": 66568,
        "name": "STARLINK-35803",
        "group": "last-30-days",
        "lat": 17.88193291672017,
        "lon": -151.95905159929652,
        "alt_km": 406.2101554877763,
        "timestamp": "2025-12-25T03:55:54.951334+00:00",
        "meta_object_name": "STARLINK-35803",
        "meta_object_id": "2025-268M",
        "meta_epoch": "2025-12-24T20:00:01.000224",
        "meta_mean_motion": 15.54091929,
        "meta_eccentricity": 0.0001151,
        "meta_inclination": 43.0004,
        "meta_ra_of_asc_node": 50.24,
        "meta_arg_of_pericenter": 272.9018,
        "meta_mean_anomaly": 189.8562,
        "meta_ephemeris_type": 0,
        "meta_classification_type": "U",
        "meta_norad_cat_id": 66568,
        "meta_element_set_no": 999,
        "meta_rev_at_epoch": 612,
        "meta_bstar": -0.030562,
        "meta_mean_motion_dot": -0.01806636,
        "meta_mean_motion_ddot": 0,
        "tle_line1": "1 66568U 25268M   25358.83334491 -.01806636  00000+0 -30562-1 0  9990",
        "tle_line2": "2 66568  43.0004  50.2400 0001151 272.9018 189.8562 15.54091929  6125"
      },
      "geometry": {
        "type": "Point",
        "coordinates": [
          -151.95905159929652,
          17.88193291672017
        ]
      }
    },
    {
      "type": "Feature",
      "properties": {
        "norad_id": 66569,
        "name": "STARLINK-35835",
        "group": "last-30-days",
        "lat": -0.9993140027997892,
        "lon": -130.69747033131898,
        "alt_km": 406.07610541112354,
        "timestamp": "2025-12-25T03:55:54.951347+00:00",
        "meta_object_name": "STARLINK-35835",
        "meta_object_id": "2025-268N",
        "meta_epoch": "2025-12-24T20:00:01.000224",
        "meta_mean_motion": 15.55250984,
        "meta_eccentricity": 0.000119,
        "meta_inclination": 43.0006,
        "meta_ra_of_asc_node": 50.1748,
        "meta_arg_of_pericenter": 286.2072,
        "meta_mean_anomaly": 203.5393,
        "meta_ephemeris_type": 0,
        "meta_classification_type": "U",
        "meta_norad_cat_id": 66569,
        "meta_element_set_no": 999,
        "meta_rev_at_epoch": 610,
        "meta_bstar": -0.034802,
        "meta_mean_motion_dot": -0.02145173,
        "meta_mean_motion_ddot": 0,
        "tle_line1": "1 66569U 25268N   25358.83334491 -.02145173  00000+0 -34802-1 0  9995",
        "tle_line2": "2 66569  43.0006  50.1748 0001190 286.2072 203.5393 15.55250984  6106"
      },
      "geometry": {
        "type": "Point",
        "coordinates": [
          -130.69747033131898,
          -0.9993140027997892
        ]
      }
    },
    {
      "type": "Feature",
      "properties": {
        "norad_id": 66570,
        "name": "STARLINK-35834",
        "group": "last-30-days",
        "lat": 38.21012336926626,
        "lon": 106.16091969336028,
        "alt_km": 444.1225190798923,
        "timestamp": "2025-12-25T03:55:54.951358+00:00",
        "meta_object_name": "STARLINK-35834",
        "meta_object_id": "2025-268P",
        "meta_epoch": "2025-12-24T20:00:01.000224",
        "meta_mean_motion": 15.40535849,
        "meta_eccentricity": 0.0001819,
        "meta_inclination": 43.0002,
        "meta_ra_of_asc_node": 50.4158,
        "meta_arg_of_pericenter": 270.4152,
        "meta_mean_anomaly": 120.6271,
        "meta_ephemeris_type": 0,
        "meta_classification_type": "U",
        "meta_norad_cat_id": 66570,
        "meta_element_set_no": 999,
        "meta_rev_at_epoch": 610,
        "meta_bstar": -0.056633,
        "meta_mean_motion_dot": -0.02084575,
        "meta_mean_motion_ddot": 0,
        "tle_line1": "1 66570U 25268P   25358.83334491 -.02084575  00000+0 -56633-1 0  9991",
        "tle_line2": "2 66570  43.0002  50.4158 0001819 270.4152 120.6271 15.40535849  6108"
      },
      "geometry": {
        "type": "Point",
        "coordinates": [
          106.16091969336028,
          38.21012336926626
        ]
      }
    },
    {
      "type": "Feature",
      "properties": {
        "norad_id": 66571,
        "name": "STARLINK-35836",
        "group": "last-30-days",
        "lat": 41.90770844301775,
        "lon": 122.86415008699997,
        "alt_km": 441.1601508867225,
        "timestamp": "2025-12-25T03:55:54.951369+00:00",
        "meta_object_name": "STARLINK-35836",
        "meta_object_id": "2025-268Q",
        "meta_epoch": "2025-12-24T20:00:01.000224",
        "meta_mean_motion": 15.41375746,
        "meta_eccentricity": 0.0001796,
        "meta_inclination": 43.0013,
        "meta_ra_of_asc_node": 50.3862,
        "meta_arg_of_pericenter": 272.5658,
        "meta_mean_anomaly": 130.7702,
        "meta_ephemeris_type": 0,
        "meta_classification_type": "U",
        "meta_norad_cat_id": 66571,
        "meta_element_set_no": 999,
        "meta_rev_at_epoch": 610,
        "meta_bstar": -0.055202,
        "meta_mean_motion_dot": -0.02089409,
        "meta_mean_motion_ddot": 0,
        "tle_line1": "1 66571U 25268Q   25358.83334491 -.02089409  00000+0 -55202-1 0  9994",
        "tle_line2": "2 66571  43.0013  50.3862 0001796 272.5658 130.7702 15.41375746  6100"
      },
      "geometry": {
        "type": "Point",
        "coordinates": [
          122.86415008699997,
          41.90770844301775
        ]
      }
    },
    {
      "type": "Feature",
      "properties": {
        "norad_id": 66572,
        "name": "STARLINK-35870",
        "group": "last-30-days",
        "lat": 42.35951135674225,
        "lon": 150.33679925553875,
        "alt_km": 436.64254882139176,
        "timestamp": "2025-12-25T03:55:54.951380+00:00",
        "meta_object_name": "STARLINK-35870",
        "meta_object_id": "2025-268R",
        "meta_epoch": "2025-12-24T20:00:01.000224",
        "meta_mean_motion": 15.42802813,
        "meta_eccentricity": 0.0001594,
        "meta_inclination": 43.0004,
        "meta_ra_of_asc_node": 50.3428,
        "meta_arg_of_pericenter": 276.9109,
        "meta_mean_anomaly": 144.9951,
        "meta_ephemeris_type": 0,
        "meta_classification_type": "U",
        "meta_norad_cat_id": 66572,
        "meta_element_set_no": 999,
        "meta_rev_at_epoch": 610,
        "meta_bstar": -0.050893,
        "meta_mean_motion_dot": -0.02029001,
        "meta_mean_motion_ddot": 0,
        "tle_line1": "1 66572U 25268R   25358.83334491 -.02029001  00000+0 -50893-1 0  9998",
        "tle_line2": "2 66572  43.0004  50.3428 0001594 276.9109 144.9951 15.42802813  6108"
      },
      "geometry": {
        "type": "Point",
        "coordinates": [
          150.33679925553875,
          42.35951135674225
        ]
      }
    },
    {
      "type": "Feature",
      "properties": {
        "norad_id": 66573,
        "name": "STARLINK-35650",
        "group": "last-30-days",
        "lat": 26.98544684044957,
        "lon": -164.7880425422904,
        "alt_km": 413.788228423914,
        "timestamp": "2025-12-25T03:55:54.951390+00:00",
        "meta_object_name": "STARLINK-35650",
        "meta_object_id": "2025-268S",
        "meta_epoch": "2025-12-23T11:08:29.992128",
        "meta_mean_motion": 15.50365619,
        "meta_eccentricity": 0.0004817,
        "meta_inclination": 43.0033,
        "meta_ra_of_asc_node": 58.2732,
        "meta_arg_of_pericenter": 315.3738,
        "meta_mean_anomaly": 44.6734,
        "meta_ephemeris_type": 0,
        "meta_classification_type": "U",
        "meta_norad_cat_id": 66573,
        "meta_element_set_no": 999,
        "meta_rev_at_epoch": 629,
        "meta_bstar": 0.0013458911,
        "meta_mean_motion_dot": 0.00078839,
        "meta_mean_motion_ddot": 0,
        "tle_line1": "1 66573U 25268S   25357.46423602  .00078839  00000+0  13459-2 0  9997",
        "tle_line2": "2 66573  43.0033  58.2732 0004817 315.3738  44.6734 15.50365619  6295"
      },
      "geometry": {
        "type": "Point",
        "coordinates": [
          -164.7880425422904,
          26.98544684044957
        ]
      }
    },
    {
      "type": "Feature",
      "properties": {
        "norad_id": 66574,
        "name": "STARLINK-35812",
        "group": "last-30-days",
        "lat": 35.433606854418784,
        "lon": 178.59800275494067,
        "alt_km": 432.8022957916919,
        "timestamp": "2025-12-25T03:55:54.951401+00:00",
        "meta_object_name": "STARLINK-35812",
        "meta_object_id": "2025-268T",
        "meta_epoch": "2025-12-24T20:00:01.000224",
        "meta_mean_motion": 15.44494574,
        "meta_eccentricity": 0.0001624,
        "meta_inclination": 43.0012,
        "meta_ra_of_asc_node": 50.2898,
        "meta_arg_of_pericenter": 281.5921,
        "meta_mean_anomaly": 161.2715,
        "meta_ephemeris_type": 0,
        "meta_classification_type": "U",
        "meta_norad_cat_id": 66574,
        "meta_element_set_no": 999,
        "meta_rev_at_epoch": 610,
        "meta_bstar": -0.04919,
        "meta_mean_motion_dot": -0.02072469,
        "meta_mean_motion_ddot": 0,
        "tle_line1": "1 66574U 25268T   25358.83334491 -.02072469  00000+0 -49190-1 0  9994",
        "tle_line2": "2 66574  43.0012  50.2898 0001624 281.5921 161.2715 15.44494574  6100"
      },
      "geometry": {
        "type": "Point",
        "coordinates": [
          178.59800275494067,
          35.433606854418784
        ]
      }
    }
  ]
}